{
  "type": "FeatureCollection",
  "features": [
    {
      "type": "Feature",
      "properties": {
        "norad_id": 43246,
        "name": "BEIDOU-3 M10 (C30)",
        "group": "gnss",
        "lat": 26.129196366982885,
        "lon": 105.90718401239188,
        "alt_km": 21534.491090767882,
        "timestamp": "2025-12-12T05:47:29.014283+00:00",
        "meta_object_name": "BEIDOU-3 M10 (C30)",
        "meta_object_id": "2018-029B",
        "meta_epoch": "2025-12-10T09:51:50.083776",
        "meta_mean_motion": 1.86228788,
        "meta_eccentricity": 0.00039909,
        "meta_inclination": 54.3654,
        "meta_ra_of_asc_node": 306.5763,
        "meta_arg_of_pericenter": 359.52,
        "meta_mean_anomaly": 0.4707,
        "meta_ephemeris_type": 0,
        "meta_classification_type": "U",
        "meta_norad_cat_id": 43246,
        "meta_element_set_no": 999,
        "meta_rev_at_epoch": 5236,
        "meta_bstar": 0,
        "meta_mean_motion_dot": -8.1e-07,
        "meta_mean_motion_ddot": 0,
        "tle_line1": "1 43246U 18029B   25344.41099634 -.00000081  00000+0  00000+0 0  9991",
        "tle_line2": "2 43246  54.3654 306.5763 0003990 359.5200   0.4707  1.86228788 52367"
      },
      "geometry": {
        "type": "Point",
        "coordinates": [
          105.90718401239188,
          26.129196366982885
        ]
      }
    },
    {
      "type": "Feature",
      "properties": {
        "norad_id": 43286,
        "name": "IRNSS-1I",
        "group": "gnss",
        "lat": 15.864799844603061,
        "lon": -133.5279234433361,
        "alt_km": 35709.88437775254,
        "timestamp": "2025-12-12T05:47:29.014294+00:00",
        "meta_object_name": "IRNSS-1I",
        "meta_object_id": "2018-035A",
        "meta_epoch": "2025-12-10T20:46:45.825888",
        "meta_mean_motion": 1.00270473,
        "meta_eccentricity": 0.0021801,
        "meta_inclination": 29.146,
        "meta_ra_of_asc_node": 77.1264,
        "meta_arg_of_pericenter": 181.9029,
        "meta_mean_anomaly": 187.524,
        "meta_ephemeris_type": 0,
        "meta_classification_type": "U",
        "meta_norad_cat_id": 43286,
        "meta_element_set_no": 999,
        "meta_rev_at_epoch": 2819,
        "meta_bstar": 0,
        "meta_mean_motion_dot": 8.2e-07,
        "meta_mean_motion_ddot": 0,
        "tle_line1": "1 43286U 18035A   25344.86580817  .00000082  00000+0  00000+0 0  9999",
        "tle_line2": "2 43286  29.1460  77.1264 0021801 181.9029 187.5240  1.00270473 28197"
      },
      "geometry": {
        "type": "Point",
        "coordinates": [
          -133.5279234433361,
          15.864799844603061
        ]
      }
    },
    {
      "type": "Feature",
      "properties": {
        "norad_id": 43508,
        "name": "COSMOS 2527 (756)",
        "group": "gnss",
        "lat": -51.504836310683444,
        "lon": 45.1720060643226,
        "alt_km": 19130.50676440874,
        "timestamp": "2025-12-12T05:47:29.014308+00:00",
        "meta_object_name": "COSMOS 2527 (756)",
        "meta_object_id": "2018-053A",
        "meta_epoch": "2025-12-10T21:51:43.881984",
        "meta_mean_motion": 2.13102002,
        "meta_eccentricity": 0.00085787,
        "meta_inclination": 65.4716,
        "meta_ra_of_asc_node": 80.1926,
        "meta_arg_of_pericenter": 224.6583,
        "meta_mean_anomaly": 135.289,
        "meta_ephemeris_type": 0,
        "meta_classification_type": "U",
        "meta_norad_cat_id": 43508,
        "meta_element_set_no": 999,
        "meta_rev_at_epoch": 5826,
        "meta_bstar": 0,
        "meta_mean_motion_dot": -2.3e-07,
        "meta_mean_motion_ddot": 0,
        "tle_line1": "1 43508U 18053A   25344.91092456 -.00000023  00000+0  00000+0 0  9995",
        "tle_line2": "2 43508  65.4716  80.1926 0008578 224.6583 135.2890  2.13102002 58265"
      },
      "geometry": {
        "type": "Point",
        "coordinates": [
          45.1720060643226,
          -51.504836310683444
        ]
      }
    },
    {
      "type": "Feature",
      "properties": {
        "norad_id": 43539,
        "name": "BEIDOU-2 IGSO-7 (C16)",
        "group": "gnss",
        "lat": 48.830695697265895,
        "lon": -68.17180237518791,
        "alt_km": 35987.99879153955,
        "timestamp": "2025-12-12T05:47:29.014320+00:00",
        "meta_object_name": "BEIDOU-2 IGSO-7 (C16)",
        "meta_object_id": "2018-057A",
        "meta_epoch": "2025-12-11T21:50:21.547104",
        "meta_mean_motion": 1.00257146,
        "meta_eccentricity": 0.0092462,
        "meta_inclination": 55.1747,
        "meta_ra_of_asc_node": 164.678,
        "meta_arg_of_pericenter": 235.1865,
        "meta_mean_anomaly": 119.5447,
        "meta_ephemeris_type": 0,
        "meta_classification_type": "U",
        "meta_norad_cat_id": 43539,
        "meta_element_set_no": 999,
        "meta_rev_at_epoch": 2724,
        "meta_bstar": 0,
        "meta_mean_motion_dot": -4.7e-07,
        "meta_mean_motion_ddot": 0,
        "tle_line1": "1 43539U 18057A   25345.90997161 -.00000047  00000+0  00000+0 0  9996",
        "tle_line2": "2 43539  55.1747 164.6780 0092462 235.1865 119.5447  1.00257146 27242"
      },
      "geometry": {
        "type": "Point",
        "coordinates": [
          -68.17180237518791,
          48.830695697265895
        ]
      }
    },
    {
      "type": "Feature",
      "properties": {
        "norad_id": 43564,
        "name": "GSAT0221 (GALILEO 25)",
        "group": "gnss",
        "lat": -1.8926240260212606,
        "lon": 168.0498835231455,
        "alt_km": 23226.142257584856,
        "timestamp": "2025-12-12T05:47:29.014333+00:00",
        "meta_object_name": "GSAT0221 (GALILEO 25)",
        "meta_object_id": "2018-060A",
        "meta_epoch": "2025-12-10T18:30:15.067872",
        "meta_mean_motion": 1.70475777,
        "meta_eccentricity": 0.0006715,
        "meta_inclination": 57.2282,
        "meta_ra_of_asc_node": 346.8706,
        "meta_arg_of_pericenter": 282.7382,
        "meta_mean_anomaly": 77.2035,
        "meta_ephemeris_type": 0,
        "meta_classification_type": "U",
        "meta_norad_cat_id": 43564,
        "meta_element_set_no": 999,
        "meta_rev_at_epoch": 4595,
        "meta_bstar": 0,
        "meta_mean_motion_dot": -8.7e-07,
        "meta_mean_motion_ddot": 0,
        "tle_line1": "1 43564U 18060A   25344.77100773 -.00000087  00000+0  00000+0 0  9991",
        "tle_line2": "2 43564  57.2282 346.8706 0006715 282.7382  77.2035  1.70475777 45957"
      },
      "geometry": {
        "type": "Point",
        "coordinates": [
          168.0498835231455,
          -1.8926240260212606
        ]
      }
    },
    {
      "type": "Feature",
      "properties": {
        "norad_id": 43565,
        "name": "GSAT0222 (GALILEO 26)",
        "group": "gnss",
        "lat": 38.464031884829254,
        "lon": 17.60999930576898,
        "alt_km": 23232.206049666664,
        "timestamp": "2025-12-12T05:47:29.014344+00:00",
        "meta_object_name": "GSAT0222 (GALILEO 26)",
        "meta_object_id": "2018-060B",
        "meta_epoch": "2025-12-10T23:46:05.542752",
        "meta_mean_motion": 1.7047557,
        "meta_eccentricity": 0.00061534,
        "meta_inclination": 57.2317,
        "meta_ra_of_asc_node": 346.8677,
        "meta_arg_of_pericenter": 263.342,
        "meta_mean_anomaly": 96.6049,
        "meta_ephemeris_type": 0,
        "meta_classification_type": "U",
        "meta_norad_cat_id": 43565,
        "meta_element_set_no": 999,
        "meta_rev_at_epoch": 4600,
        "meta_bstar": 0,
        "meta_mean_motion_dot": -8.7e-07,
        "meta_mean_motion_ddot": 0,
        "tle_line1": "1 43565U 18060B   25344.99034193 -.00000087  00000+0  00000+0 0  9998",
        "tle_line2": "2 43565  57.2317 346.8677 0006153 263.3420  96.6049  1.70475570 46006"
      },
      "geometry": {
        "type": "Point",
        "coordinates": [
          17.60999930576898,
          38.464031884829254
        ]
      }
    },
    {
      "type": "Feature",
      "properties": {
        "norad_id": 43566,
        "name": "GSAT0219 (GALILEO 23)",
        "group": "gnss",
        "lat": -57.160522381701064,
        "lon": -99.54510111512106,
        "alt_km": 23211.41391232127,
        "timestamp": "2025-12-12T05:47:29.014355+00:00",
        "meta_object_name": "GSAT0219 (GALILEO 23)",
        "meta_object_id": "2018-060C",
        "meta_epoch": "2025-12-07T16:36:27.181728",
        "meta_mean_motion": 1.7047564,
        "meta_eccentricity": 0.00057893,
        "meta_inclination": 57.2316,
        "meta_ra_of_asc_node": 346.9585,
        "meta_arg_of_pericenter": 285.9629,
        "meta_mean_anomaly": 73.992,
        "meta_ephemeris_type": 0,
        "meta_classification_type": "U",
        "meta_norad_cat_id": 43566,
        "meta_element_set_no": 999,
        "meta_rev_at_epoch": 4592,
        "meta_bstar": 0,
        "meta_mean_motion_dot": -8.4e-07,
        "meta_mean_motion_ddot": 0,
        "tle_line1": "1 43566U 18060C   25341.69198127 -.00000084  00000+0  00000+0 0  9998",
        "tle_line2": "2 43566  57.2316 346.9585 0005789 285.9629  73.9920  1.70475640 45924"
      },
      "geometry": {
        "type": "Point",
        "coordinates": [
          -99.54510111512106,
          -57.160522381701064
        ]
      }
    }
  ]
}